GLOBALSTAR M024 [-]     
1 25883U 99043A   23264.60253049 -.00000039  00000+0  92452-3 0  9994
2 25883  52.0058  12.4435 0001958 126.6035 332.2289 11.10151431 44389
GLOBALSTAR M027 [-]     
1 25884U 99043B   23264.45919092 -.00000031  00000+0  12317-2 0  9998
2 25884  52.0207  72.7720 0021829  47.7250 312.5390 11.04366186 71116
GLOBALSTAR M054 [-]     
1 25885U 99043C   23264.59259266 -.00000095  00000+0 -59942-3 0  9991
2 25885  52.0149 306.2690 0004576 152.1608   8.1192 11.39205027 46722
GLOBALSTAR M053 [-]     
1 25886U 99043D   23264.32868273 -.00000041  00000+0  81012-3 0  9990
2 25886  51.9960 218.7754 0003617  78.6333  77.5197 11.27650859 47823
GLOBALSTAR M058 [-]     
1 25907U 99049A   23264.57159788 -.00000091  00000+0 -87751-4 0  9994
2 25907  51.9978   3.7148 0002800 121.5921 238.5187 11.93165764465785
GLOBALSTAR M050 [-]     
1 25908U 99049B   23264.61210928 -.00000133  00000+0 -50426-3 0  9999
2 25908  51.9998  58.6869 0008723 202.4623 239.3691 12.07422927 71533
GLOBALSTAR M033 [-]     
1 25909U 99049C   23264.54404602 -.00000085  00000+0  61449-4 0  9999
2 25909  51.9940 334.5459 0011831  53.6935 306.5004 12.20263149458266
GLOBALSTAR M055 [-]     
1 25910U 99049D   23264.45201524 -.00000079  00000+0  12793-3 0  9999
2 25910  52.0050  16.4361 0006392 250.4981 109.5180 12.29386676 90217
